KUIPER-00112            
1 65150U 25171U   25336.25003472 -.00006988  00000+0 -72157-3 0  9992
2 65150  51.8960 226.6925 0009732 193.8601 317.3430 14.88356677  4762
KUIPER-00114            
1 65151U 25171V   25336.01041236  .00004203  00000+0  58016-3 0  9991
2 65151  51.9005 247.5444 0006761 138.4164 221.7314 14.79918577 18172
KUIPER-00115            
1 65152U 25171W   25336.15348550  .00010272  00000+0  13724-2 0  9995
2 65152  51.9007 239.3900 0010055 163.5436 196.5854 14.79967564 18306
KUIPER-00116            
1 65153U 25171X   25336.18179319  .00003281  00000+0  45886-3 0  9991
2 65153  51.8989 244.3114 0010582 127.5263 232.6663 14.79961856 18231
KUIPER-00118            
1 65154U 25171Y   25336.17911686  .00006808  00000+0  92083-3 0  9991
2 65154  51.9003 246.7751 0002192 127.7870 232.3291 14.79949984 18206
KUIPER-00119            
1 65155U 25171Z   25336.12504757 -.00010897  00000+0 -14025-2 0  9998
2 65155  51.9035 234.5996 0008694 155.5004 204.6374 14.79903319 18362
KUIPER-00120            
1 65762U 25217A   25336.26448364  .00006639  00000+0  66373-3 0  9990
2 65762  51.8927 123.6219 0016350 329.9591  30.0438 14.92405347 10319
KUIPER-00132            
1 65763U 25217B   25335.65105512  .00044474  00000+0  12045-2 0  9993
2 65763  51.8627 118.3711 0006755 341.0343  19.0391 15.37206545 10339
