<?xml version="1.0" encoding="UTF-8"?>
<ndm xmlns:xsi="http://www.w3.org/2001/XMLSchema-instance" xsi:noNamespaceSchemaLocation="https://sanaregistry.org/r/ndmxml_unqualified/ndmxml-2.0.0-master-2.0.xsd">
<omm id="CCSDS_OMM_VERS" version="2.0">
<header><CREATION_DATE/><ORIGINATOR/></header><body><segment><metadata><OBJECT_NAME>KUIPER-00112</OBJECT_NAME><OBJECT_ID>2025-171U</OBJECT_ID><CENTER_NAME>EARTH</CENTER_NAME><REF_FRAME>TEME</REF_FRAME><TIME_SYSTEM>UTC</TIME_SYSTEM><MEAN_ELEMENT_THEORY>SGP4</MEAN_ELEMENT_THEORY></metadata><data><meanElements><EPOCH>2025-12-02T06:00:02.999808</EPOCH><MEAN_MOTION>14.88356677</MEAN_MOTION><ECCENTRICITY>.00097322</ECCENTRICITY><INCLINATION>51.8960</INCLINATION><RA_OF_ASC_NODE>226.6925</RA_OF_ASC_NODE><ARG_OF_PERICENTER>193.8601</ARG_OF_PERICENTER><MEAN_ANOMALY>317.3430</MEAN_ANOMALY></meanElements><tleParameters><EPHEMERIS_TYPE>0</EPHEMERIS_TYPE><CLASSIFICATION_TYPE>U</CLASSIFICATION_TYPE><NORAD_CAT_ID>65150</NORAD_CAT_ID><ELEMENT_SET_NO>999</ELEMENT_SET_NO><REV_AT_EPOCH>476</REV_AT_EPOCH><BSTAR>-.72157386E-3</BSTAR><MEAN_MOTION_DOT>-.6988E-4</MEAN_MOTION_DOT><MEAN_MOTION_DDOT>0</MEAN_MOTION_DDOT></tleParameters></data></segment></body></omm>
<omm id="CCSDS_OMM_VERS" version="2.0">
<header><CREATION_DATE/><ORIGINATOR/></header><body><segment><metadata><OBJECT_NAME>KUIPER-00114</OBJECT_NAME><OBJECT_ID>2025-171V</OBJECT_ID><CENTER_NAME>EARTH</CENTER_NAME><REF_FRAME>TEME</REF_FRAME><TIME_SYSTEM>UTC</TIME_SYSTEM><MEAN_ELEMENT_THEORY>SGP4</MEAN_ELEMENT_THEORY></metadata><data><meanElements><EPOCH>2025-12-02T00:14:59.627904</EPOCH><MEAN_MOTION>14.79918577</MEAN_MOTION><ECCENTRICITY>.00067613</ECCENTRICITY><INCLINATION>51.9005</INCLINATION><RA_OF_ASC_NODE>247.5444</RA_OF_ASC_NODE><ARG_OF_PERICENTER>138.4164</ARG_OF_PERICENTER><MEAN_ANOMALY>221.7314</MEAN_ANOMALY></meanElements><tleParameters><EPHEMERIS_TYPE>0</EPHEMERIS_TYPE><CLASSIFICATION_TYPE>U</CLASSIFICATION_TYPE><NORAD_CAT_ID>65151</NORAD_CAT_ID><ELEMENT_SET_NO>999</ELEMENT_SET_NO><REV_AT_EPOCH>1817</REV_AT_EPOCH><BSTAR>.58016001E-3</BSTAR><MEAN_MOTION_DOT>.4203E-4</MEAN_MOTION_DOT><MEAN_MOTION_DDOT>0</MEAN_MOTION_DDOT></tleParameters></data></segment></body></omm>
<omm id="CCSDS_OMM_VERS" version="2.0">
<header><CREATION_DATE/><ORIGINATOR/></header><body><segment><metadata><OBJECT_NAME>KUIPER-00115</OBJECT_NAME><OBJECT_ID>2025-171W</OBJECT_ID><CENTER_NAME>EARTH</CENTER_NAME><REF_FRAME>TEME</REF_FRAME><TIME_SYSTEM>UTC</TIME_SYSTEM><MEAN_ELEMENT_THEORY>SGP4</MEAN_ELEMENT_THEORY></metadata><data><meanElements><EPOCH>2025-12-02T03:41:01.147200</EPOCH><MEAN_MOTION>14.79967564</MEAN_MOTION><ECCENTRICITY>.00100557</ECCENTRICITY><INCLINATION>51.9007</INCLINATION><RA_OF_ASC_NODE>239.3900</RA_OF_ASC_NODE><ARG_OF_PERICENTER>163.5436</ARG_OF_PERICENTER><MEAN_ANOMALY>196.5854</MEAN_ANOMALY></meanElements><tleParameters><EPHEMERIS_TYPE>0</EPHEMERIS_TYPE><CLASSIFICATION_TYPE>U</CLASSIFICATION_TYPE><NORAD_CAT_ID>65152</NORAD_CAT_ID><ELEMENT_SET_NO>999</ELEMENT_SET_NO><REV_AT_EPOCH>1830</REV_AT_EPOCH><BSTAR>.13724407E-2</BSTAR><MEAN_MOTION_DOT>.10272E-3</MEAN_MOTION_DOT><MEAN_MOTION_DDOT>0</MEAN_MOTION_DDOT></tleParameters></data></segment></body></omm>
<omm id="CCSDS_OMM_VERS" version="2.0">
<header><CREATION_DATE/><ORIGINATOR/></header><body><segment><metadata><OBJECT_NAME>KUIPER-00116</OBJECT_NAME><OBJECT_ID>2025-171X</OBJECT_ID><CENTER_NAME>EARTH</CENTER_NAME><REF_FRAME>TEME</REF_FRAME><TIME_SYSTEM>UTC</TIME_SYSTEM><MEAN_ELEMENT_THEORY>SGP4</MEAN_ELEMENT_THEORY></metadata><data><meanElements><EPOCH>2025-12-02T04:21:46.931616</EPOCH><MEAN_MOTION>14.79961856</MEAN_MOTION><ECCENTRICITY>.00105828</ECCENTRICITY><INCLINATION>51.8989</INCLINATION><RA_OF_ASC_NODE>244.3114</RA_OF_ASC_NODE><ARG_OF_PERICENTER>127.5263</ARG_OF_PERICENTER><MEAN_ANOMALY>232.6663</MEAN_ANOMALY></meanElements><tleParameters><EPHEMERIS_TYPE>0</EPHEMERIS_TYPE><CLASSIFICATION_TYPE>U</CLASSIFICATION_TYPE><NORAD_CAT_ID>65153</NORAD_CAT_ID><ELEMENT_SET_NO>999</ELEMENT_SET_NO><REV_AT_EPOCH>1823</REV_AT_EPOCH><BSTAR>.4588602E-3</BSTAR><MEAN_MOTION_DOT>.3281E-4</MEAN_MOTION_DOT><MEAN_MOTION_DDOT>0</MEAN_MOTION_DDOT></tleParameters></data></segment></body></omm>
<omm id="CCSDS_OMM_VERS" version="2.0">
<header><CREATION_DATE/><ORIGINATOR/></header><body><segment><metadata><OBJECT_NAME>KUIPER-00118</OBJECT_NAME><OBJECT_ID>2025-171Y</OBJECT_ID><CENTER_NAME>EARTH</CENTER_NAME><REF_FRAME>TEME</REF_FRAME><TIME_SYSTEM>UTC</TIME_SYSTEM><MEAN_ELEMENT_THEORY>SGP4</MEAN_ELEMENT_THEORY></metadata><data><meanElements><EPOCH>2025-12-02T04:17:55.696704</EPOCH><MEAN_MOTION>14.79949984</MEAN_MOTION><ECCENTRICITY>.00021928</ECCENTRICITY><INCLINATION>51.9003</INCLINATION><RA_OF_ASC_NODE>246.7751</RA_OF_ASC_NODE><ARG_OF_PERICENTER>127.7870</ARG_OF_PERICENTER><MEAN_ANOMALY>232.3291</MEAN_ANOMALY></meanElements><tleParameters><EPHEMERIS_TYPE>0</EPHEMERIS_TYPE><CLASSIFICATION_TYPE>U</CLASSIFICATION_TYPE><NORAD_CAT_ID>65154</NORAD_CAT_ID><ELEMENT_SET_NO>999</ELEMENT_SET_NO><REV_AT_EPOCH>1820</REV_AT_EPOCH><BSTAR>.92083147E-3</BSTAR><MEAN_MOTION_DOT>.6808E-4</MEAN_MOTION_DOT><MEAN_MOTION_DDOT>0</MEAN_MOTION_DDOT></tleParameters></data></segment></body></omm>
<omm id="CCSDS_OMM_VERS" version="2.0">
<header><CREATION_DATE/><ORIGINATOR/></header><body><segment><metadata><OBJECT_NAME>KUIPER-00119</OBJECT_NAME><OBJECT_ID>2025-171Z</OBJECT_ID><CENTER_NAME>EARTH</CENTER_NAME><REF_FRAME>TEME</REF_FRAME><TIME_SYSTEM>UTC</TIME_SYSTEM><MEAN_ELEMENT_THEORY>SGP4</MEAN_ELEMENT_THEORY></metadata><data><meanElements><EPOCH>2025-12-02T03:00:04.110048</EPOCH><MEAN_MOTION>14.79903319</MEAN_MOTION><ECCENTRICITY>.0008694</ECCENTRICITY><INCLINATION>51.9035</INCLINATION><RA_OF_ASC_NODE>234.5996</RA_OF_ASC_NODE><ARG_OF_PERICENTER>155.5004</ARG_OF_PERICENTER><MEAN_ANOMALY>204.6374</MEAN_ANOMALY></meanElements><tleParameters><EPHEMERIS_TYPE>0</EPHEMERIS_TYPE><CLASSIFICATION_TYPE>U</CLASSIFICATION_TYPE><NORAD_CAT_ID>65155</NORAD_CAT_ID><ELEMENT_SET_NO>999</ELEMENT_SET_NO><REV_AT_EPOCH>1836</REV_AT_EPOCH><BSTAR>-.14024839E-2</BSTAR><MEAN_MOTION_DOT>-.10897E-3</MEAN_MOTION_DOT><MEAN_MOTION_DDOT>0</MEAN_MOTION_DDOT></tleParameters></data></segment></body></omm>
<omm id="CCSDS_OMM_VERS" version="2.0">
<header><CREATION_DATE/><ORIGINATOR/></header><body><segment><metadata><OBJECT_NAME>KUIPER-00120</OBJECT_NAME><OBJECT_ID>2025-217A</OBJECT_ID><CENTER_NAME>EARTH</CENTER_NAME><REF_FRAME>TEME</REF_FRAME><TIME_SYSTEM>UTC</TIME_SYSTEM><MEAN_ELEMENT_THEORY>SGP4</MEAN_ELEMENT_THEORY></metadata><data><meanElements><EPOCH>2025-12-02T06:20:51.386496</EPOCH><MEAN_MOTION>14.92405347</MEAN_MOTION><ECCENTRICITY>.00163503</ECCENTRICITY><INCLINATION>51.8927</INCLINATION><RA_OF_ASC_NODE>123.6219</RA_OF_ASC_NODE><ARG_OF_PERICENTER>329.9591</ARG_OF_PERICENTER><MEAN_ANOMALY>30.0438</MEAN_ANOMALY></meanElements><tleParameters><EPHEMERIS_TYPE>0</EPHEMERIS_TYPE><CLASSIFICATION_TYPE>U</CLASSIFICATION_TYPE><NORAD_CAT_ID>65762</NORAD_CAT_ID><ELEMENT_SET_NO>999</ELEMENT_SET_NO><REV_AT_EPOCH>1031</REV_AT_EPOCH><BSTAR>.66373182E-3</BSTAR><MEAN_MOTION_DOT>.6639E-4</MEAN_MOTION_DOT><MEAN_MOTION_DDOT>0</MEAN_MOTION_DDOT></tleParameters></data></segment></body></omm>
<omm id="CCSDS_OMM_VERS" version="2.0">
<header><CREATION_DATE/><ORIGINATOR/></header><body><segment><metadata><OBJECT_NAME>KUIPER-00132</OBJECT_NAME><OBJECT_ID>2025-217B</OBJECT_ID><CENTER_NAME>EARTH</CENTER_NAME><REF_FRAME>TEME</REF_FRAME><TIME_SYSTEM>UTC</TIME_SYSTEM><MEAN_ELEMENT_THEORY>SGP4</MEAN_ELEMENT_THEORY></metadata><data><meanElements><EPOCH>2025-12-01T15:37:31.162368</EPOCH><MEAN_MOTION>15.37206545</MEAN_MOTION><ECCENTRICITY>.00067553</ECCENTRICITY><INCLINATION>51.8627</INCLINATION><RA_OF_ASC_NODE>118.3711</RA_OF_ASC_NODE><ARG_OF_PERICENTER>341.0343</ARG_OF_PERICENTER><MEAN_ANOMALY>19.0391</MEAN_ANOMALY></meanElements><tleParameters><EPHEMERIS_TYPE>0</EPHEMERIS_TYPE><CLASSIFICATION_TYPE>U</CLASSIFICATION_TYPE><NORAD_CAT_ID>65763</NORAD_CAT_ID><ELEMENT_SET_NO>999</ELEMENT_SET_NO><REV_AT_EPOCH>1033</REV_AT_EPOCH><BSTAR>.1204524E-2</BSTAR><MEAN_MOTION_DOT>.44474E-3</MEAN_MOTION_DOT><MEAN_MOTION_DDOT>0</MEAN_MOTION_DDOT></tleParameters></data></segment></body></omm>

</ndm>
